[{"OBJECT_NAME":"FENGYUN 3D","OBJECT_ID":"2017-072A","EPOCH":"2026-03-09T23:43:29.243424","MEAN_MOTION":14.19714568,"ECCENTRICITY":0.00015402,"INCLINATION":99.0037,"RA_OF_ASC_NODE":41.6713,"ARG_OF_PERICENTER":13.7306,"MEAN_ANOMALY":346.3911,"EPHEMERIS_TYPE":0,"CLASSIFICATION_TYPE":"U","NORAD_CAT_ID":43010,"ELEMENT_SET_NO":999,"REV_AT_EPOCH":43091,"BSTAR":3.5759568e-5,"MEAN_MOTION_DOT":2.9e-7,"MEAN_MOTION_DDOT":0},{"OBJECT_NAME":"SL-16 DEB","OBJECT_ID":"1992-093CX","EPOCH":"2026-03-09T07:44:30.157728","MEAN_MOTION":13.8366491,"ECCENTRICITY":0.01701032,"INCLINATION":70.7561,"RA_OF_ASC_NODE":21.6142,"ARG_OF_PERICENTER":52.8764,"MEAN_ANOMALY":21.5285,"EPHEMERIS_TYPE":0,"CLASSIFICATION_TYPE":"U","NORAD_CAT_ID":22406,"ELEMENT_SET_NO":999,"REV_AT_EPOCH":66998,"BSTAR":0.00055292166,"MEAN_MOTION_DOT":6.38e-6,"MEAN_MOTION_DDOT":0}]
